#Pass ID: 20250130_234837_FENGYUN 3G
#Satellite: FENGYUN 3G
#Configuration: FENGYUN 3G
#Start time: 2025-01-30 23:48:42.954651

#LorettStation: 1.0.0 05.05.2024
#Station: Regia
#Location: 37.494653 lon 55.929028 lat
#TLE: 1 56232U 23055A   25029.94576284  .00047060  00000+0  74536-3 0  9990
#TLE: 2 56232  49.9956  61.1515 0019273 293.5139  66.3803 15.52688552101785

#Time	Az	El	Level	SNR
#Closed at: 2025-01-30 23:48:37.956336